[{"OBJECT_NAME":"STARLINK-5406","OBJECT_ID":"2022-177AS","EPOCH":"2026-03-09T22:00:01.999584","MEAN_MOTION":15.06794089,"ECCENTRICITY":0.00020868,"INCLINATION":43.0007,"RA_OF_ASC_NODE":118.9128,"ARG_OF_PERICENTER":247.3845,"MEAN_ANOMALY":35.0053,"EPHEMERIS_TYPE":0,"CLASSIFICATION_TYPE":"U","NORAD_CAT_ID":54860,"ELEMENT_SET_NO":999,"REV_AT_EPOCH":572,"BSTAR":0.0039409589,"MEAN_MOTION_DOT":0.00059974,"MEAN_MOTION_DDOT":0},{"OBJECT_NAME":"LEMUR-2-LLOYD","OBJECT_ID":"2024-149DP","EPOCH":"2026-03-09T11:02:25.245024","MEAN_MOTION":15.07168338,"ECCENTRICITY":0.00051866,"INCLINATION":97.678,"RA_OF_ASC_NODE":149.6779,"ARG_OF_PERICENTER":125.6096,"MEAN_ANOMALY":234.5616,"EPHEMERIS_TYPE":0,"CLASSIFICATION_TYPE":"U","NORAD_CAT_ID":60577,"ELEMENT_SET_NO":999,"REV_AT_EPOCH":8536,"BSTAR":0.00080142638,"MEAN_MOTION_DOT":0.00012007,"MEAN_MOTION_DDOT":0}]
